NORAD_CAT_ID,OBJECT_NAME,OBJECT_TYPE,EPOCH,MEAN_MOTION,ECCENTRICITY,INCLINATION,RA_OF_ASC_NODE,ARG_OF_PERICENTER,MEAN_ANOMALY,BSTAR,MEAN_MOTION_DOT,MEAN_MOTION_DDOT,TLE_LINE0,TLE_LINE1,TLE_LINE2,SEMIMAJOR_AXIS,PERIOD,APOGEE,PERIGEE,DECAYED
53412.0,STARLINK-4496,PAYLOAD,2022-11-27 06:47:48,15.08841504,0.0001972,53.2169,93.9696,53.8961,306.2213,0.00012359,1.679e-05,0.0,0 STARLINK-4496,1 53412U 22097AA  22331.28319882  .00001679  00000-0  12359-3 0  9993,2 53412  53.2169  93.9696 0001972  53.8961 306.2213 15.08841504 17737,6917.876,95.437,541.105,538.377,0.0
53412.0,STARLINK-4496,PAYLOAD,2022-11-27 14:44:43,15.08843992,0.0002,53.2167,92.4831,51.7323,308.3849,0.0001386999999999,1.92e-05,0.0,0 STARLINK-4496,1 53412U 22097AA  22331.61439703  .00001920  00000-0  13870-3 0  9993,2 53412  53.2167  92.4831 0002000  51.7323 308.3849 15.08843992 17788,6917.868,95.437,541.117,538.35,0.0
53412.0,STARLINK-4496,PAYLOAD,2022-11-28 14:35:29,15.08864493,0.0002067,53.2164,88.0239,41.4065,318.7084,0.00012981,1.7800000000000002e-05,0.0,0 STARLINK-4496,1 53412U 22097AA  22332.60798431  .00001780  00000-0  12981-3 0  9995,2 53412  53.2164  88.0239 0002067  41.4065 318.7084 15.08864493 17448,6917.806,95.436,541.1,538.241,0.0
53412.0,STARLINK-4496,PAYLOAD,2022-11-28 17:46:15,15.08873132,0.0001997,53.217,87.4289,43.4587,316.6562,0.00067275,0.00010445,0.0,0 STARLINK-4496,1 53412U 22097AA  22332.74046279  .00010445  00000-0  67275-3 0  9990,2 53412  53.2170  87.4289 0001997  43.4587 316.6562 15.08873132 17465,6917.779,95.435,541.026,538.263,0.0
53412.0,STARLINK-4496,PAYLOAD,2022-11-29 08:04:44,15.08844256,0.0001797,53.2174,84.7535,37.0046,323.107,0.00013333,1.835e-05,0.0,0 STARLINK-4496,1 53412U 22097AA  22333.33663054  .00001835  00000-0  13333-3 0  9991,2 53412  53.2174  84.7535 0001797  37.0046 323.1070 15.08844256 17552,6917.8669999999975,95.437,540.976,538.489,0.0
53412.0,STARLINK-4496,PAYLOAD,2022-11-29 17:37:04,15.0883206,0.0001918,53.2171,82.9691,43.2059,316.9083,-7.1785e-05,-1.4300000000000004e-05,0.0,0 STARLINK-4496,1 53412U 22097AA  22333.73407709 -.00001430  00000-0 -71785-4 0  9997,2 53412  53.2171  82.9691 0001918  43.2059 316.9083 15.08832060 17611,6917.905,95.438,541.097,538.443,0.0
53412.0,STARLINK-4496,PAYLOAD,2022-11-30 07:55:32,15.08838262,0.000192,53.2171,80.293,40.2908,319.8226,4.555e-05,4.37e-06,0.0,0 STARLINK-4496,1 53412U 22097AA  22334.33023505  .00000437  00000-0  45550-4 0  9997,2 53412  53.2171  80.2930 0001920  40.2908 319.8226 15.08838262 17702,6917.886,95.438,541.0790000000002,538.422,0.0
53412.0,STARLINK-4496,PAYLOAD,2022-11-30 17:27:51,15.08841166,0.0002017,53.2168,78.5095,38.611,321.5026,9.9984e-05,1.303e-05,0.0,0 STARLINK-4496,1 53412U 22097AA  22334.72767384  .00001303  00000-0  99984-4 0  9993,2 53412  53.2168  78.5095 0002017  38.6110 321.5026 15.08841166 18250,6917.877,95.437,541.137,538.346,0.0
53412.0,STARLINK-4496,PAYLOAD,2022-12-01 07:46:19,15.08833876,0.0002105,53.2179,75.8333,45.6158,314.5006,0.00022044,3.221e-05,0.0,0 STARLINK-4496,1 53412U 22097AA  22335.32384179  .00003221  00000-0  22044-3 0  9990,2 53412  53.2179  75.8333 0002105  45.6158 314.5006 15.08833876 18344,6917.899,95.438,541.22,538.308,0.0
53412.0,STARLINK-4496,PAYLOAD,2022-12-01 15:43:15,15.08847195,0.0002081,53.2176,74.3458,43.4631,316.6525,0.00040157,6.11e-05,0.0,0 STARLINK-4496,1 53412U 22097AA  22335.65503629  .00006110  00000-0  40157-3 0  9994,2 53412  53.2176  74.3458 0002081  43.4631 316.6525 15.08847195 17907,6917.858,95.437,541.163,538.284,0.0
53412.0,STARLINK-4496,PAYLOAD,2022-12-02 07:37:06,15.08841136,0.0002163,53.2168,71.3704,47.2995,312.8179,8.4068e-05,1.05e-05,0.0,0 STARLINK-4496,1 53412U 22097AA  22336.31743753  .00001050  00000-0  84068-4 0  9990,2 53412  53.2168  71.3704 0002163  47.2995 312.8179 15.08841136 18009,6917.877,95.437,541.238,538.246,0.0
53412.0,STARLINK-4496,PAYLOAD,2022-12-02 15:34:02,15.0883424,0.0002176,53.2166,69.8837,44.2841,315.8325,-4.7304e-05,-1.041e-05,0.0,0 STARLINK-4496,1 53412U 22097AA  22336.64864092 -.00001041  00000-0 -47304-4 0  9990,2 53412  53.2166  69.8837 0002176  44.2841 315.8325 15.08834240 18540,6917.898,95.438,541.268,538.258,0.0
53412.0,STARLINK-4496,PAYLOAD,2022-12-03 05:52:30,15.08837859,0.0002108,53.2171,67.2083,43.5964,316.5194,8.0265e-05,9.89e-06,0.0,0 STARLINK-4496,1 53412U 22097AA  22337.24480188  .00000989  00000-0  80265-4 0  9998,2 53412  53.2171  67.2083 0002108  43.5964 316.5194 15.08837859 18141,6917.887,95.438,541.21,538.294,0.0
53412.0,STARLINK-4496,PAYLOAD,2022-12-03 12:14:03,15.08836485,0.0002049,53.2172,66.0188,41.2674,318.8473,-2.4459e-05,-6.77e-06,0.0,0 STARLINK-4496,1 53412U 22097AA  22337.50976290 -.00000677  00000-0 -24459-4 0  9990,2 53412  53.2172  66.0188 0002049  41.2674 318.8473 15.08836485 18679,6917.891,95.438,541.174,538.339,0.0
53412.0,STARLINK-4496,PAYLOAD,2022-12-03 15:24:49,15.08837849,0.0002052,53.2175,65.4242,40.9775,319.1371,8.0357e-06,-1.6e-06,0.0,0 STARLINK-4496,1 53412U 22097AA  22337.64224269 -.00000160  00000-0  80357-5 0  9993,2 53412  53.2175  65.4242 0002052  40.9775 319.1371 15.08837849 18696,6917.887,95.438,541.172,538.332,0.0
53412.0,STARLINK-4496,PAYLOAD,2022-12-04 08:54:04,15.08840623,0.0002003,53.2178,62.153,37.3926,322.7205,0.00012917,1.768e-05,0.0,0 STARLINK-4496,1 53412U 22097AA  22338.37088239  .00001768  00000-0  12917-3 0  9998,2 53412  53.2178  62.1530 0002003  37.3926 322.7205 15.08840623 18316,6917.878000000002,95.438,541.129,538.3580000000002,0.0
53412.0,STARLINK-4496,PAYLOAD,2022-12-04 13:40:13,15.08838174,0.0002115,53.2175,61.2616,38.8276,321.2868,0.00018001,2.578e-05,0.0,0 STARLINK-4496,1 53412U 22097AA  22338.56960488  .00002578  00000-0  18001-3 0  9994,2 53412  53.2175  61.2616 0002115  38.8276 321.2868 15.08838174 18830,6917.886,95.438,541.214,538.288,0.0
53412.0,STARLINK-4496,PAYLOAD,2022-12-04 16:50:59,15.08841891,0.0002127,53.2175,60.6667,35.8944,324.219,0.00018416,2.644e-05,0.0,0 STARLINK-4496,1 53412U 22097AA  22338.70208331  .00002644  00000-0  18416-3 0  9996,2 53412  53.2175  60.6667 0002127  35.8944 324.2190 15.08841891 18854,6917.875,95.437,541.211,538.268,0.0
53412.0,STARLINK-4496,PAYLOAD,2022-12-04 23:12:31,15.08858225,0.000214,53.2176,59.4774,38.0854,322.0289,0.00013554,1.871e-05,0.0,0 STARLINK-4496,1 53412U 22097AA  22338.96703506  .00001871  00000-0  13554-3 0  9997,2 53412  53.2176  59.4774 0002140  38.0854 322.0289 15.08858225 18405,6917.825,95.436,541.17,538.2090000000002,0.0
53412.0,STARLINK-4496,PAYLOAD,2022-12-05 11:55:37,15.08848469,0.0002197,53.2175,57.0987,42.7528,317.3635,0.00026605,3.950000000000001e-05,0.0,0 STARLINK-4496,1 53412U 22097AA  22339.49696045  .00003950  00000-0  26605-3 0  9996,2 53412  53.2175  57.0987 0002197  42.7528 317.3635 15.08848469 18485,6917.855,95.437,541.239,538.2,0.0
53412.0,STARLINK-4496,PAYLOAD,2022-12-05 16:41:46,15.08846111,0.0002188,53.2171,56.2073,35.7771,324.3367,0.00020215,2.931e-05,0.0,0 STARLINK-4496,1 53412U 22097AA  22339.69568088  .00002931  00000-0  20215-3 0  9992,2 53412  53.2171  56.2073 0002188  35.7771 324.3367 15.08846111 19001,6917.861999999999,95.437,541.24,538.2130000000002,0.0
53412.0,STARLINK-4496,PAYLOAD,2022-12-06 13:21:47,15.08836633,0.0002133,53.2175,52.3409,32.5183,327.594,-1.7012999999999998e-05,-5.59e-06,0.0,0 STARLINK-4496,1 53412U 22097AA  22340.55680269 -.00000559  00000-0 -17013-4 0  9994,2 53412  53.2175  52.3409 0002133  32.5183 327.5940 15.08836633 18646,6917.891,95.438,541.231,538.28,0.0
53412.0,STARLINK-4496,PAYLOAD,2022-12-06 14:57:11,15.08833832,0.0002194,53.2179,52.0442,33.2252,326.8877,-8.696600000000001e-05,-1.672e-05,0.0,0 STARLINK-4496,1 53412U 22097AA  22340.62304401 -.00001672  00000-0 -86966-4 0  9993,2 53412  53.2179  52.0442 0002194  33.2252 326.8877 15.08833832 19141,6917.899,95.438,541.2819999999998,538.246,0.0
53412.0,STARLINK-4496,PAYLOAD,2022-12-07 13:12:35,15.08827918,0.000223,53.2177,47.8813,35.8909,324.2232,-9.7783e-05,-1.844e-05,0.0,0 STARLINK-4496,1 53412U 22097AA  22341.55041423 -.00001844  00000-0 -97783-4 0  9998,2 53412  53.2177  47.8813 0002230  35.8909 324.2232 15.08827918 18796,6917.917,95.438,541.325,538.24,0.0
53412.0,STARLINK-4496,PAYLOAD,2022-12-07 16:23:21,15.08831348,0.0002227,53.2175,47.2863,35.954,324.1601,-3.9311e-05,-9.14e-06,0.0,0 STARLINK-4496,1 53412U 22097AA  22341.68289324 -.00000914  00000-0 -39311-4 0  9996,2 53412  53.2175  47.2863 0002227  35.9540 324.1601 15.08831348 19300,6917.906999999997,95.438,541.312,538.231,0.0
53412.0,STARLINK-4496,PAYLOAD,2022-12-08 05:06:26,15.088463399999998,0.0002206,53.2179,44.9075,33.4178,326.6953,0.00023569,3.465e-05,0.0,0 STARLINK-4496,1 53412U 22097AA  22342.21280731  .00003465  00000-0  23569-3 0  9998,2 53412  53.2179  44.9075 0002206  33.4178 326.6953 15.08846340 18898,6917.861,95.437,541.252,538.2,0.0
53412.0,STARLINK-4496,PAYLOAD,2022-12-08 13:03:21,15.08860145,0.0002276,53.2177,43.4215,33.8442,326.2695,0.00064338,9.972e-05,0.0,0 STARLINK-4496,1 53412U 22097AA  22342.54400420  .00009972  00000-0  64338-3 0  9991,2 53412  53.2177  43.4215 0002276  33.8442 326.2695 15.08860145 19430,6917.819,95.436,541.258,538.109,0.0
53412.0,STARLINK-4496,PAYLOAD,2022-12-08 21:00:17,15.08855763,0.0002271,53.218,41.9344,37.5771,322.5379,0.00039367,5.985e-05,0.0,0 STARLINK-4496,1 53412U 22097AA  22342.87520460  .00005985  00000-0  39367-3 0  9998,2 53412  53.2180  41.9344 0002271  37.5771 322.5379 15.08855763 18999,6917.831999999999,95.437,541.268,538.126,0.0
53412.0,STARLINK-4496,PAYLOAD,2022-12-09 12:54:08,15.08830427,0.0002155,53.2173,38.9608,33.3872,326.7256,-0.00065328,-0.00010668,0.0,0 STARLINK-4496,1 53412U 22097AA  22343.53760244 -.00010668  00000-0 -65328-3 0  9990,2 53412  53.2173  38.9608 0002155  33.3872 326.7256 15.08830427 19099,6917.91,95.438,541.265,538.284,0.0
